SPACEMOBILE-004         
1 61049U 24163E   26201.28776775  .00011771  00000+0  54287-3 0  9991
2 61049  52.9728 156.7022 0005405 240.1803 119.8654 15.20670628102802
CZ-8A R/B               
1 66004U 25231K   26201.38226770 -.00000100  00000+0  23312-4 0  9991
2 66004  50.0032 258.0905 0116537 340.8790  18.7770 14.30163075 39698
SZ-21 MODULE            
1 66515U 25246C   26200.93928356  .00034255  00000+0  18665-3 0  9994
2 66515  41.4720 102.9079 0009191 250.3291 109.6563 15.79140397 38910
SPACEMOBILE-006         
1 67232U 25309A   26201.34407849  .00001858  00000+0  10374-3 0  9998
2 67232  52.9942 179.7458 0009593 233.1495 126.8619 15.18671763 31638
SPACEMOBILE-008         
1 69589U 26139A   26201.17380628  .00000346  00000+0  36450-4 0  9998
2 69589  52.9951 112.8041 0005247  68.3967 291.7583 15.12806988  4977
SPACEMOBILE-009         
1 69590U 26139B   26201.17611898  .00000314  00000+0  34750-4 0  9992
2 69590  52.9943 112.8125 0005597  65.1847 294.9726 15.12700615  4977
SPACEMOBILE-010         
1 69591U 26139C   26201.44407672  .00001013  00000+0  74497-4 0  9995
2 69591  52.9948 111.6389 0005523  57.7793 302.3732 15.12541945  5025
